[{"OBJECT_NAME":"UHETSAT","OBJECT_ID":"2023-185E","EPOCH":"2026-03-09T22:39:26.455680","MEAN_MOTION":15.29797662,"ECCENTRICITY":0.00118435,"INCLINATION":97.3584,"RA_OF_ASC_NODE":137.3576,"ARG_OF_PERICENTER":307.7346,"MEAN_ANOMALY":52.2821,"EPHEMERIS_TYPE":0,"CLASSIFICATION_TYPE":"U","NORAD_CAT_ID":58466,"ELEMENT_SET_NO":999,"REV_AT_EPOCH":12611,"BSTAR":0.00030513019,"MEAN_MOTION_DOT":8.749e-5,"MEAN_MOTION_DDOT":0},{"OBJECT_NAME":"STARLINK-36121","OBJECT_ID":"2025-286R","EPOCH":"2026-03-09T04:53:25.731456","MEAN_MOTION":15.30198288,"ECCENTRICITY":0.00010019,"INCLINATION":53.1624,"RA_OF_ASC_NODE":0.6176,"ARG_OF_PERICENTER":112.7165,"MEAN_ANOMALY":247.3942,"EPHEMERIS_TYPE":0,"CLASSIFICATION_TYPE":"U","NORAD_CAT_ID":66940,"ELEMENT_SET_NO":999,"REV_AT_EPOCH":1534,"BSTAR":0.00061351436,"MEAN_MOTION_DOT":0.00017854,"MEAN_MOTION_DDOT":0}]
